HAWK-A                  
1 43765U 18099H   26068.67628545  .00008617  00000+0  36104-3 0  9995
2 43765  97.4051 122.2425 0034260 275.5523  84.1807 15.23231043397949
STARLINK-31690          
1 59581U 24076T   26068.15974687 -.00002134  00000+0 -68075-4 0  9997
2 59581  43.0064  11.8152 0001079 265.0084  95.0645 15.27566842106436
